{
  "norad_id": 61591,
  "name": "STARLINK-32409",
  "history": [
    {
      "epoch": "2026-03-28T21:30:47.797056Z",
      "apogee_km": 476.19118598331534,
      "perigee_km": 474.31486486215545,
      "latitude_deg": 3.0076731128150767e-05,
      "longitude_deg": 171.93441319222802,
      "height_km": 476.2568315854156,
      "semi_major_axis_km": 6853.390025422735,
      "eccentricity": 0.00013689,
      "inclination_deg": 53.1614,
      "raan_deg": 320.9438,
      "arg_perigee_deg": 96.4701,
      "mean_anomaly_deg": 263.6456,
      "mean_motion_rev_day": 15.30187288
    },
    {
      "epoch": "2026-03-29T00:38:54.487392Z",
      "apogee_km": 476.1498953364471,
      "perigee_km": 474.36938288960664,
      "latitude_deg": -8.91308466664413e-06,
      "longitude_deg": 124.17144996777849,
      "height_km": 476.23112209913796,
      "semi_major_axis_km": 6853.396639113027,
      "eccentricity": 0.0001299,
      "inclination_deg": 53.1621,
      "raan_deg": 320.3375,
      "arg_perigee_deg": 94.7178,
      "mean_anomaly_deg": 265.3971,
      "mean_motion_rev_day": 15.30185073
    },
    {
      "epoch": "2026-03-30T00:09:41.706144Z",
      "apogee_km": 475.81099674247344,
      "perigee_km": 474.65414795866127,
      "latitude_deg": 1.9273929040442572e-05,
      "longitude_deg": 125.95717729510667,
      "height_km": 476.20080272582913,
      "semi_major_axis_km": 6853.369572350567,
      "eccentricity": 8.44e-05,
      "inclination_deg": 53.1608,
      "raan_deg": 315.7856,
      "arg_perigee_deg": 96.9006,
      "mean_anomaly_deg": 263.2091,
      "mean_motion_rev_day": 15.30194138
    }
  ]
}